satname,norad_id,inclination_deg,eccentricity,mean_motion_rev_per_day,perigee_km,apogee_km,l1,l2
STARLINK-1556,46033,53.0546,0.0001418,15.06396142,546.2413660756656,548.2053982800508,1 46033U 20055G   26055.73228334  .00000566  00000+0  56918-4 0  9997,2 46033  53.0546 184.7861 0001418  87.6644 272.4507 15.06396142306918
STARLINK-1557,46034,53.0552,0.0001539,15.06382882,546.1982034222701,548.3298418570384,1 46034U 20055H   26055.73598615  .00001883  00000+0  14534-3 0  9990,2 46034  53.0552 184.7696 0001539  92.2602 267.8563 15.06382882306918
STARLINK-1558,46035,53.0549,0.000116,15.06387398,546.4468366094598,548.0535264355722,1 46035U 20055J   26055.74335087 -.00000113  00000+0  11311-4 0  9991,2 46035  53.0549 184.7366 0001160  92.3170 267.7952 15.06387398306941
STARLINK-1560,46036,53.0559,9.99e-05,15.06396701,546.5298255855614,547.91351224761,1 46036U 20055K   26055.79494532  .00000247  00000+0  35479-4 0  9996,2 46036  53.0559 184.5057 0000999  90.0387 270.0716 15.06396701306956
STARLINK-1567,46038,53.055,0.0001308,15.06398863,546.3092066345289,548.1208787288942,1 46038U 20055M   26055.73966588  .00000027  00000+0  20695-4 0  9997,2 46038  53.0550 184.7542 0001308  94.8909 265.2229 15.06398863306931
STARLINK-1569,46039,53.0536,0.0001523,15.06388191,546.1930149613227,548.3024871564958,1 46039U 20055N   26055.74703490 -.00000543  00000+0 -17549-4 0  9999,2 46039  53.0536 184.7186 0001523  81.2057 278.9104 15.06388191306939
STARLINK-1582,46043,53.0547,0.0001676,15.06372898,546.1339205702425,548.4553252502419,1 46043U 20055S   26055.75441384 -.00002191  00000+0 -12835-3 0  9999,2 46043  53.0547 184.6856 0001676 103.6372 256.4803 15.06372898306931
STARLINK-1591,46045,53.0548,0.0001532,15.06391237,546.1774478877314,548.29938291501,1 46045U 20055U   26055.71386102  .00000023  00000+0  20433-4 0  9997,2 46045  53.0548 184.8677 0001532  88.9216 271.1948 15.06391237306910
STARLINK-1524,46047,53.143,0.0001516,15.26969673,483.8368103752,485.91767629377864,1 46047U 20055W   26055.91668981  .01030260  00000+0  35241-1 0  9996,2 46047  53.1430 173.0797 0001516  67.3742 332.7834 15.26969673  5699
STARLINK-1527,46048,53.1422,0.000118,15.26452712,485.6166605143044,487.2366975425548,1 46048U 20055X   26055.91668981  .01759861  00000+0  60875-1 0  9993,2 46048  53.1422 173.2068 0001180  70.3069 279.9317 15.26452712  5832
STARLINK-1540,46051,53.1401,0.0001304,15.26121316,486.52513065371204,488.3156680234588,1 46051U 20055AA  26055.91668981  .01160323  00000+0  40867-1 0  9995,2 46051  53.1401 173.0920 0001304 113.6900 120.9109 15.26121316  5737
STARLINK-1541,46052,53.1279,4.57e-05,15.23665465,494.4816172558676,495.1098033055878,1 46052U 20055AB  26055.91668981  .00055266  00000+0  22717-2 0  9999,2 46052  53.1279 173.0503 0000457 115.2004 222.5535 15.23665465  5736
STARLINK-1543,46053,53.1351,0.0001224,15.25067212,489.74288506198536,491.424347868895,1 46053U 20055AC  26055.91668981  .01085457  00000+0  39669-1 0  9999,2 46053  53.1351 173.1476 0001224  95.7503 168.9269 15.25067212  5732
STARLINK-1548,46054,53.1332,0.0001158,15.24570937,491.2785591097909,492.869700007398,1 46054U 20055AD  26055.91668981  .01045569  00000+0  38373-1 0  9991,2 46054  53.1332 173.1332 0001158 118.1198 113.8570 15.24570937  5735
STARLINK-1554,46055,53.125,9.8e-05,15.23155612,495.6556662922849,497.0030616996273,1 46055U 20055AE  26055.91668981  .00058145  00000+0  24247-2 0  9991,2 46055  53.1250 173.1988 0000980 102.9888 173.2729 15.23155612  5780
STARLINK-1564,46058,53.134,9.42e-05,15.24724643,490.96527189727203,492.2595326846631,1 46058U 20055AH  26055.91668981  .01059453  00000+0  39188-1 0  9997,2 46058  53.1340 173.6110 0000942 118.7097 124.9088 15.24724643  5733
STARLINK-1570,46059,53.1438,0.0001608,15.26864227,484.08959164171574,486.29683863890386,1 46059U 20055AJ  26055.91668981  .01809385  00000+0  61662-1 0  9997,2 46059  53.1438 173.1915 0001608  78.9733 341.0027 15.26864227  5778
STARLINK-1572,46060,53.1266,0.0001296,15.23089991,495.6358597276421,497.4177725887903,1 46060U 20055AK  26055.91668981  .01028482  00000+0  39494-1 0  9998,2 46060  53.1266 173.2474 0001296  56.3396 352.7016 15.23089991  5780
STARLINK-1573,46061,53.1462,0.0001547,15.27236996,483.0147812253572,485.1379500406829,1 46061U 20055AL  26055.91668981  .01744847  00000+0  58997-1 0  9998,2 46061  53.1462 173.1716 0001547  97.8277  33.4240 15.27236996  5789
STARLINK-1577,46063,53.1471,0.0001052,15.27489469,482.5983665140657,484.0420171072219,1 46063U 20055AN  26055.91668981  .01749353  00000+0  57744-1 0  9996,2 46063  53.1471 173.1128 0001052  69.2769 292.7312 15.27489469  5626
STARLINK-1583,46064,53.1469,0.0001011,15.27521589,482.53032156271274,483.91768875795515,1 46064U 20055AP  26055.91668981  .01759215  00000+0  58925-1 0  9997,2 46064  53.1469 173.1305 0001011 103.2735  69.7854 15.27521589  5733
STARLINK-1525,46066,53.0542,0.0001352,15.06386916,546.3153462574155,548.187971350756,1 46066U 20055AR  26055.70188632 -.00000820  00000+0 -36189-4 0  9999,2 46066  53.0542 154.9234 0001352 103.9310 256.1830 15.06386916307346
STARLINK-1536,46070,53.0552,0.0001682,15.06384611,546.0938718477037,548.4235749690579,1 46070U 20055AV  26055.67977842  .00001094  00000+0  92353-4 0  9996,2 46070  53.0552 155.0226 0001682  86.4557 273.6624 15.06384611307355
STARLINK-1542,46073,53.0526,0.000137,15.06391265,546.2895531644181,548.1871060047242,1 46073U 20055AY  26055.73873513  .00009436  00000+0  65167-3 0  9996,2 46073  53.0526 154.7574 0001370  91.5488 268.5658 15.06391265307358
STARLINK-1549,46074,53.0555,0.000128,15.06391468,546.3512594503172,548.1241553754144,1 46074U 20055AZ  26055.79034183 -.00000051  00000+0  15446-4 0  9996,2 46074  53.0555 154.5260 0001280  94.4060 265.7076 15.06391468307357
STARLINK-1551,46075,53.0546,0.0001479,15.06388821,546.2215560559862,548.2700842941931,1 46075U 20055BA  26055.74979765 -.00000903  00000+0 -41777-4 0  9999,2 46075  53.0546 154.7072 0001479 104.1181 255.9973 15.06388821307350
STARLINK-1552,46076,53.0557,0.0001836,15.06379332,546.0033974803828,548.546408731203,1 46076U 20055BB  26055.70925826 -.00001051  00000+0 -51669-4 0  9991,2 46076  53.0557 154.8896 0001836  94.1618 265.9580 15.06379332307338
STARLINK-1559,46077,53.0273,0.0003388,15.2832464,478.4964666341639,483.1440960880136,1 46077U 20055BC  26055.55157061  .00029710  00000+0  10708-2 0  9990,2 46077  53.0273 135.0362 0003388 343.7551  16.3338 15.28324640307577
